IXPE                    
1 49954U 21121A   24240.25001157  .00009811  00000+0  71258-3 0  9995
2 49954   0.2281 225.5941 0009224 253.8848 129.3659 14.99383839148587
